     2.11           N: GPS NAV DATA                         RINEX VERSION / TYPE
teqc  2018Dec12     gpsops              20220126 01:03:59UTCPGM / RUN BY / DATE
Linux 2.6.32-573.12.1.x86_64|x86_64|gcc -static|Linux 64|=+ COMMENT
CHPI                                    MARKER NAME         COMMENT
41609M003                               MARKER NUMBER       COMMENT
4164613.9484 -4162456.9866 -2445028.7316                    COMMENT
                                                            COMMENT
This data is provided as a public service by NASA/JPL.      COMMENT
No warranty is expressed or implied regarding suitability   COMMENT
for use.  For further information, contact:                 COMMENT
Dave Stowers, NASA/JPL m/s 238-600                          COMMENT
4800 Oak Grove Drive, Pasadena CA 91109 USA                 COMMENT
                                                            END OF HEADER
11 22  1 25 12  0  0.0-7.815565913916D-05-3.831246431218D-11 0.000000000000D+00
    2.300000000000D+01-1.468750000000D+01 4.411255175056D-09 2.390870264178D+00
   -8.810311555862D-07 2.891606418416D-04 8.750706911087D-06 5.153764490128D+03
    2.160000000000D+05-2.421438694000D-08-1.490997963787D+00-3.725290298462D-09
    9.616214917378D-01 2.070625000000D+02 2.866682507164D+00-8.054264063856D-09
    2.164375869228D-10 1.000000000000D+00 2.194000000000D+03 0.000000000000D+00
    4.000000000000D+00 6.300000000000D+01-8.847564458847D-09 7.910000000000D+02
    2.088180000000D+05 4.000000000000D+00
20 22  1 25 12  0  0.0 5.170106887817D-04-2.273736754432D-13 0.000000000000D+00
    7.000000000000D+01 2.500000000000D+00 5.218431654339D-09 1.298837333788D+00
    1.676380634308D-08 5.263777216896D-03 6.651505827904D-06 5.153729112625D+03
    2.160000000000D+05 3.725290298462D-09-6.535268904982D-01 1.080334186554D-07
    9.416082340596D-01 2.421562500000D+02 3.113613660678D+00-8.436422839446D-09
    2.778687172046D-10 1.000000000000D+00 2.194000000000D+03 0.000000000000D+00
    2.000000000000D+00 0.000000000000D+00-8.381903171539D-09 7.000000000000D+01
    2.088180000000D+05 4.000000000000D+00
25 22  1 25 12  0  0.0 2.759927883744D-04 5.456968210638D-12 0.000000000000D+00
    4.500000000000D+01 6.962500000000D+01 4.729125558490D-09-1.308319148081D+00
    3.684312105179D-06 1.042147097178D-02 5.310401320457D-06 5.153719902039D+03
    2.160000000000D+05 2.626329660416D-07 2.636540677816D+00 1.136213541031D-07
    9.581232391416D-01 2.752812500000D+02 9.730440336354D-01-8.347133405897D-09
    3.928735076157D-12 1.000000000000D+00 2.194000000000D+03 0.000000000000D+00
    2.000000000000D+00 0.000000000000D+00 5.587935447693D-09 4.500000000000D+01
    2.088180000000D+05 4.000000000000D+00
29 22  1 25 12  0  0.0-4.718001000583D-04-4.774847184308D-12 0.000000000000D+00
    2.900000000000D+01-3.918750000000D+01 4.035882396416D-09 2.596096809487D+00
   -1.983717083931D-06 1.787971821614D-03 6.472691893578D-06 5.153761304855D+03
    2.160000000000D+05-1.117587089539D-08-2.520276477689D+00 4.656612873077D-08
    9.822171429551D-01 2.656875000000D+02 2.274951539469D+00-7.988904198498D-09
   -2.396528396456D-10 1.000000000000D+00 2.194000000000D+03 0.000000000000D+00
    2.000000000000D+00 0.000000000000D+00-1.024454832077D-08 2.900000000000D+01
    2.088180000000D+05 4.000000000000D+00
 5 22  1 25 11 59 44.0-6.911391392350D-05-1.364242052659D-12 0.000000000000D+00
    2.800000000000D+01-7.343750000000D+00 4.845916137572D-09 2.899629493802D+00
   -4.619359970093D-07 5.874089663848D-03 6.595626473427D-06 5.153650598526D+03
    2.159840000000D+05 2.421438694000D-08-5.399024865457D-01-7.078051567078D-08
    9.594709831434D-01 2.531250000000D+02 1.012730667772D+00-8.140696235531D-09
    3.153702792951D-10 1.000000000000D+00 2.194000000000D+03 0.000000000000D+00
    2.000000000000D+00 0.000000000000D+00-1.117587089539D-08 2.800000000000D+01
    2.088180000000D+05 4.000000000000D+00
18 22  1 25 12  0  0.0 2.539255656302D-04-7.617018127348D-12 0.000000000000D+00
    1.800000000000D+02-2.921875000000D+01 4.161601918853D-09 4.433544327489D-01
   -1.477077603340D-06 2.091686590575D-03 9.857118129730D-06 5.153629096985D+03
    2.160000000000D+05 3.539025783539D-08-1.527143266778D+00 3.166496753693D-08
    9.703046566265D-01 1.940000000000D+02 3.111033869014D+00-7.962117368433D-09
    2.350097891010D-10 1.000000000000D+00 2.194000000000D+03 0.000000000000D+00
    2.000000000000D+00 0.000000000000D+00-8.381903171539D-09 1.800000000000D+02
    2.088180000000D+05 4.000000000000D+00
 6 22  1 25 12  0  0.0 1.812037080526D-04 1.125499693444D-11 0.000000000000D+00
    3.200000000000D+01-2.796875000000D+01 3.803015553720D-09 6.105147261146D-01
   -1.419335603714D-06 2.655068528838D-03 8.951872587204D-06 5.153659902573D+03
    2.160000000000D+05-2.048909664154D-08-1.543546975979D+00-6.519258022308D-08
    9.858965735667D-01 2.176875000000D+02-9.871574509559D-01-7.819968590223D-09
    1.850077063136D-10 1.000000000000D+00 2.194000000000D+03 0.000000000000D+00
    2.000000000000D+00 0.000000000000D+00 3.725290298462D-09 3.200000000000D+01
    2.088180000000D+05 4.000000000000D+00
11 22  1 25 12 14 40.0-7.818825542927D-05-3.831246431218D-11 0.000000000000D+00
    2.400000000000D+01-1.534375000000D+01 4.398040338891D-09 2.518986924179D+00
   -8.661299943924D-07 2.890973119065D-04 8.758157491684D-06 5.153764656067D+03
    2.168800000000D+05-2.421438694000D-08-1.491005039922D+00-3.725290298462D-09
    9.616216819172D-01 2.065937500000D+02 2.866914435271D+00-8.053906906122D-09
    2.167947446570D-10 1.000000000000D+00 2.194000000000D+03 0.000000000000D+00
    2.000000000000D+00 6.300000000000D+01-8.847564458847D-09 7.920000000000D+02
    2.097180000000D+05 4.000000000000D+00
31 22  1 25 12  0  0.0-1.615993678570D-04-1.818989403546D-12 0.000000000000D+00
    5.600000000000D+01 4.525000000000D+01 4.590548357622D-09-8.618479581240D-01
    2.333894371986D-06 1.046872604638D-02 1.083686947823D-05 5.153680749893D+03
    2.160000000000D+05 2.365559339523D-07 1.618372486910D+00-4.097819328308D-08
    9.548815838393D-01 1.662187500000D+02 3.694183335850D-01-8.074264896971D-09
   -1.321483616526D-10 1.000000000000D+00 2.194000000000D+03 0.000000000000D+00
    2.000000000000D+00 0.000000000000D+00-1.350417733192D-08 5.600000000000D+01
    2.098260000000D+05 4.000000000000D+00
23 22  1 25 12  0  0.0 7.704365998507D-06-3.751665644813D-12 0.000000000000D+00
    2.140000000000D+02-1.021875000000D+01 4.666980112740D-09-4.272727747232D-01
   -5.085021257401D-07 1.972847036086D-03 6.848946213722D-06 5.153694854736D+03
    2.160000000000D+05 3.539025783539D-08-5.273296272928D-01-5.587935447693D-09
    9.673631877254D-01 2.508125000000D+02 2.934257993589D+00-8.157839806773D-09
    3.621579424748D-10 1.000000000000D+00 2.194000000000D+03 0.000000000000D+00
    2.000000000000D+00 0.000000000000D+00-8.381903171539D-09 4.700000000000D+02
    2.127480000000D+05 4.000000000000D+00
15 22  1 25 11 59 44.0-8.888961747289D-05 2.842170943040D-12 0.000000000000D+00
    6.000000000000D+00-4.584375000000D+01 5.614162423828D-09 1.531288911827D+00
   -2.477318048477D-06 1.393148780335D-02 7.778406143188D-06 5.153726396561D+03
    2.159840000000D+05-3.632158041000D-07 4.228280302218D-01-1.005828380585D-07
    9.300897496057D-01 2.185312500000D+02 1.072130428776D+00-8.620001914823D-09
   -1.832219176426D-10 1.000000000000D+00 2.194000000000D+03 0.000000000000D+00
    2.000000000000D+00 0.000000000000D+00-1.071020960808D-08 6.000000000000D+00
    2.131020000000D+05 4.000000000000D+00
26 22  1 25 12  0  0.0 1.774788834155D-04 3.296918293927D-12 0.000000000000D+00
    1.000000000000D+02 7.278125000000D+01 5.074497087458D-09-1.957963076564D+00
    3.688037395477D-06 6.828257464804D-03 6.083399057388D-06 5.153690982819D+03
    2.160000000000D+05-1.490116119385D-08 2.589949870562D+00-1.061707735062D-07
    9.389425910477D-01 2.517500000000D+02 3.545969209679D-01-8.450709148814D-09
    1.421487782100D-10 1.000000000000D+00 2.194000000000D+03 0.000000000000D+00
    2.000000000000D+00 0.000000000000D+00 6.984919309616D-09 1.000000000000D+02
    2.150580000000D+05 4.000000000000D+00
25 22  1 25 14  0  0.0 2.760323695838D-04 5.456968210638D-12 0.000000000000D+00
    4.600000000000D+01 6.615625000000D+01 4.837701509686D-09-2.581752120910D-01
    3.542751073837D-06 1.042109029368D-02 5.360692739487D-06 5.153719240189D+03
    2.232000000000D+05 5.215406417847D-08 2.636479811647D+00 1.676380634308D-07
    9.581225149971D-01 2.739375000000D+02 9.730546983082D-01-8.507854386285D-09
   -7.857470152314D-12 1.000000000000D+00 2.194000000000D+03 0.000000000000D+00
    2.000000000000D+00 0.000000000000D+00 5.587935447693D-09 4.600000000000D+01
    2.160180000000D+05 4.000000000000D+00
18 22  1 25 14  0  0.0 2.538710832596D-04-7.617018127348D-12 0.000000000000D+00
    1.810000000000D+02-2.637500000000D+01 4.119100148483D-09 1.493642207233D+00
   -1.380220055580D-06 2.092114649713D-03 9.553506970406D-06 5.153629274368D+03
    2.232000000000D+05-6.146728992462D-08-1.527200017759D+00 4.656612873077D-08
    9.703063009464D-01 2.001562500000D+02 3.110950665548D+00-7.909615181506D-09
    1.689356082747D-10 1.000000000000D+00 2.194000000000D+03 0.000000000000D+00
    2.000000000000D+00 0.000000000000D+00-8.381903171539D-09 1.810000000000D+02
    2.160180000000D+05 4.000000000000D+00
29 22  1 25 14  0  0.0-4.718345589936D-04-4.774847184308D-12 0.000000000000D+00
    3.000000000000D+01-3.028125000000D+01 4.085884479203D-09-2.636935510628D+00
   -1.605600118637D-06 1.789241097867D-03 6.360933184624D-06 5.153758920670D+03
    2.232000000000D+05-2.421438694000D-08-2.520334027423D+00 3.166496753693D-08
    9.822154810802D-01 2.679062500000D+02 2.274923394388D+00-7.977832308738D-09
   -2.303667385565D-10 1.000000000000D+00 2.194000000000D+03 0.000000000000D+00
    2.000000000000D+00 0.000000000000D+00-1.024454832077D-08 3.000000000000D+01
    2.160180000000D+05 4.000000000000D+00
